JINJUSAT-1B             
1 63210U 25052A   26068.66363707  .00019955  00000+0  68430-3 0  9998
2 63210  97.4113 325.4613 0005550  82.1930 277.9941 15.30194857 54866
STARLINK-36499          
1 67359U 26003AB  26068.45826705  .00025188  00000+0  92069-3 0  9992
2 67359  42.9994 228.7861 0001927 278.6240  81.4393 15.27616462  8782
